SAPPHIRE                
1 39088U 13009C   26087.50112249  .00000141  00000+0  64241-4 0  9994
2 39088  98.4238 268.8778 0012168 126.1538 234.0775 14.35216487685002
PRAETORIAN SDA_602      
1 65565U 25203A   26087.72531270  .00000323  00000+0  27834-3 0  9993
2 65565  81.2991  85.2996 0007043  57.8533 302.3306 13.84332804 27566
PRAETORIAN SDA_603      
1 65566U 25203B   26087.50971281  .00000245  00000+0  21010-3 0  9993
2 65566  81.2993  85.3579 0010590  55.7833 304.4326 13.83895203 27547
PRAETORIAN SDA_604      
1 65567U 25203C   26087.69636140  .00000081  00000+0  63605-4 0  9991
2 65567  81.3014  85.4742 0006711  64.1289 296.0559 13.83036559 27551
PRAETORIAN SDA_605      
1 65568U 25203D   26087.68465998  .00000085  00000+0  66400-4 0  9992
2 65568  81.2978  85.2275 0009305  52.0240 308.1755 13.83531203 27564
PRAETORIAN SDA_606      
1 65569U 25203E   26087.74253117  .00000083  00000+0  64536-4 0  9994
2 65569  81.3015  85.3711 0006948  55.7537 304.4277 13.83530522 27564
PRAETORIAN SDA_607      
1 65570U 25203F   26087.72541375  .00000363  00000+0  31424-3 0  9990
2 65570  81.2998  85.1657 0009760  56.7821 303.4270 13.84368265 27571
PRAETORIAN SDA_608      
1 65571U 25203G   26087.74805635  .00000084  00000+0  65272-4 0  9994
2 65571  81.2966  85.2748 0007140  62.9975 297.1910 13.83889204 27567
PRAETORIAN SDA_609      
1 65572U 25203H   26087.70731448  .00000288  00000+0  24728-3 0  9997
2 65572  81.3010  85.3161 0008037  56.1969 303.9952 13.84299755 27562
PRAETORIAN SDA_610      
1 65573U 25203J   26087.51444625  .00000082  00000+0  63477-4 0  9992
2 65573  81.2968  85.4558 0007631  59.8415 300.3497 13.83912219 27538
PRAETORIAN SDA_611      
1 65574U 25203K   26087.69779773  .00000408  00000+0  36070-3 0  9997
2 65574  81.2966  85.3796 0006878  66.5295 293.6583 13.83298474 27555
PRAETORIAN SDA_612      
1 65575U 25203L   26087.49886046  .00000299  00000+0  25341-3 0  9995
2 65575  81.2987  85.3479 0010343  55.9829 304.2309 13.85027760 27548
PRAETORIAN SDA_613      
1 65576U 25203M   26087.75241758  .00000081  00000+0  63678-4 0  9995
2 65576  81.2959  85.2784 0006854  60.4456 299.7382 13.82944032 27563
PRAETORIAN SDA_614      
1 65577U 25203N   26087.47290639  .00000091  00000+0  70174-4 0  9997
2 65577  81.2974  85.4294 0008220  55.8170 304.3765 13.84767920 27546
PRAETORIAN SDA_615      
1 65578U 25203P   26087.71891875  .00000295  00000+0  25319-3 0  9990
2 65578  81.2982  85.1144 0010109  54.1919 306.0176 13.84425198 27575
PRAETORIAN SDA_616      
1 65579U 25203Q   26087.47985750  .00000259  00000+0  22508-3 0  9997
2 65579  81.3025  85.6771 0006648  66.4326 293.7528 13.83313351 27521
