[{"OBJECT_NAME":"SAPPHIRE","OBJECT_ID":"2013-009C","EPOCH":"2026-03-28T12:01:36.983136","MEAN_MOTION":14.35216487,"ECCENTRICITY":0.0012168,"INCLINATION":98.4238,"RA_OF_ASC_NODE":268.8778,"ARG_OF_PERICENTER":126.1538,"MEAN_ANOMALY":234.0775,"EPHEMERIS_TYPE":0,"CLASSIFICATION_TYPE":"U","NORAD_CAT_ID":39088,"ELEMENT_SET_NO":999,"REV_AT_EPOCH":68500,"BSTAR":6.4241e-5,"MEAN_MOTION_DOT":1.41e-6,"MEAN_MOTION_DDOT":0},{"OBJECT_NAME":"PRAETORIAN SDA_602","OBJECT_ID":"2025-203A","EPOCH":"2026-03-28T17:24:27.017280","MEAN_MOTION":13.84332804,"ECCENTRICITY":0.0007043,"INCLINATION":81.2991,"RA_OF_ASC_NODE":85.2996,"ARG_OF_PERICENTER":57.8533,"MEAN_ANOMALY":302.3306,"EPHEMERIS_TYPE":0,"CLASSIFICATION_TYPE":"U","NORAD_CAT_ID":65565,"ELEMENT_SET_NO":999,"REV_AT_EPOCH":2756,"BSTAR":0.00027834,"MEAN_MOTION_DOT":3.23e-6,"MEAN_MOTION_DDOT":0},{"OBJECT_NAME":"PRAETORIAN SDA_603","OBJECT_ID":"2025-203B","EPOCH":"2026-03-28T12:13:59.186784","MEAN_MOTION":13.83895203,"ECCENTRICITY":0.00105906,"INCLINATION":81.2993,"RA_OF_ASC_NODE":85.3579,"ARG_OF_PERICENTER":55.7833,"MEAN_ANOMALY":304.4326,"EPHEMERIS_TYPE":0,"CLASSIFICATION_TYPE":"U","NORAD_CAT_ID":65566,"ELEMENT_SET_NO":999,"REV_AT_EPOCH":2754,"BSTAR":0.00021010054,"MEAN_MOTION_DOT":2.45e-6,"MEAN_MOTION_DDOT":0},{"OBJECT_NAME":"PRAETORIAN SDA_604","OBJECT_ID":"2025-203C","EPOCH":"2026-03-28T16:42:45.624960","MEAN_MOTION":13.83036559,"ECCENTRICITY":0.0006711,"INCLINATION":81.3014,"RA_OF_ASC_NODE":85.4742,"ARG_OF_PERICENTER":64.1289,"MEAN_ANOMALY":296.0559,"EPHEMERIS_TYPE":0,"CLASSIFICATION_TYPE":"U","NORAD_CAT_ID":65567,"ELEMENT_SET_NO":999,"REV_AT_EPOCH":2755,"BSTAR":6.3605e-5,"MEAN_MOTION_DOT":8.1e-7,"MEAN_MOTION_DDOT":0},{"OBJECT_NAME":"PRAETORIAN SDA_605","OBJECT_ID":"2025-203D","EPOCH":"2026-03-28T16:25:54.622272","MEAN_MOTION":13.83531203,"ECCENTRICITY":0.0009305,"INCLINATION":81.2978,"RA_OF_ASC_NODE":85.2275,"ARG_OF_PERICENTER":52.024,"MEAN_ANOMALY":308.1755,"EPHEMERIS_TYPE":0,"CLASSIFICATION_TYPE":"U","NORAD_CAT_ID":65568,"ELEMENT_SET_NO":999,"REV_AT_EPOCH":2756,"BSTAR":6.64e-5,"MEAN_MOTION_DOT":8.5e-7,"MEAN_MOTION_DDOT":0},{"OBJECT_NAME":"PRAETORIAN SDA_606","OBJECT_ID":"2025-203E","EPOCH":"2026-03-28T17:49:14.693088","MEAN_MOTION":13.83530522,"ECCENTRICITY":0.0006948,"INCLINATION":81.3015,"RA_OF_ASC_NODE":85.3711,"ARG_OF_PERICENTER":55.7537,"MEAN_ANOMALY":304.4277,"EPHEMERIS_TYPE":0,"CLASSIFICATION_TYPE":"U","NORAD_CAT_ID":65569,"ELEMENT_SET_NO":999,"REV_AT_EPOCH":2756,"BSTAR":6.4536e-5,"MEAN_MOTION_DOT":8.3e-7,"MEAN_MOTION_DDOT":0},{"OBJECT_NAME":"PRAETORIAN SDA_607","OBJECT_ID":"2025-203F","EPOCH":"2026-03-28T17:24:35.748000","MEAN_MOTION":13.84368265,"ECCENTRICITY":0.000976,"INCLINATION":81.2998,"RA_OF_ASC_NODE":85.1657,"ARG_OF_PERICENTER":56.7821,"MEAN_ANOMALY":303.427,"EPHEMERIS_TYPE":0,"CLASSIFICATION_TYPE":"U","NORAD_CAT_ID":65570,"ELEMENT_SET_NO":999,"REV_AT_EPOCH":2757,"BSTAR":0.00031424,"MEAN_MOTION_DOT":3.63e-6,"MEAN_MOTION_DDOT":0},{"OBJECT_NAME":"PRAETORIAN SDA_608","OBJECT_ID":"2025-203G","EPOCH":"2026-03-28T17:57:12.068640","MEAN_MOTION":13.83889204,"ECCENTRICITY":0.000714,"INCLINATION":81.2966,"RA_OF_ASC_NODE":85.2748,"ARG_OF_PERICENTER":62.9975,"MEAN_ANOMALY":297.191,"EPHEMERIS_TYPE":0,"CLASSIFICATION_TYPE":"U","NORAD_CAT_ID":65571,"ELEMENT_SET_NO":999,"REV_AT_EPOCH":2756,"BSTAR":6.5272e-5,"MEAN_MOTION_DOT":8.4e-7,"MEAN_MOTION_DDOT":0},{"OBJECT_NAME":"PRAETORIAN SDA_609","OBJECT_ID":"2025-203H","EPOCH":"2026-03-28T16:58:31.971072","MEAN_MOTION":13.84299755,"ECCENTRICITY":0.0008037,"INCLINATION":81.301,"RA_OF_ASC_NODE":85.3161,"ARG_OF_PERICENTER":56.1969,"MEAN_ANOMALY":303.9952,"EPHEMERIS_TYPE":0,"CLASSIFICATION_TYPE":"U","NORAD_CAT_ID":65572,"ELEMENT_SET_NO":999,"REV_AT_EPOCH":2756,"BSTAR":0.00024728,"MEAN_MOTION_DOT":2.88e-6,"MEAN_MOTION_DDOT":0},{"OBJECT_NAME":"PRAETORIAN SDA_610","OBJECT_ID":"2025-203J","EPOCH":"2026-03-28T12:20:48.156000","MEAN_MOTION":13.83912219,"ECCENTRICITY":0.00076316,"INCLINATION":81.2968,"RA_OF_ASC_NODE":85.4558,"ARG_OF_PERICENTER":59.8415,"MEAN_ANOMALY":300.3497,"EPHEMERIS_TYPE":0,"CLASSIFICATION_TYPE":"U","NORAD_CAT_ID":65573,"ELEMENT_SET_NO":999,"REV_AT_EPOCH":2753,"BSTAR":6.3476816e-5,"MEAN_MOTION_DOT":8.2e-7,"MEAN_MOTION_DDOT":0},{"OBJECT_NAME":"PRAETORIAN SDA_611","OBJECT_ID":"2025-203K","EPOCH":"2026-03-28T16:44:49.723872","MEAN_MOTION":13.83298474,"ECCENTRICITY":0.0006878,"INCLINATION":81.2966,"RA_OF_ASC_NODE":85.3796,"ARG_OF_PERICENTER":66.5295,"MEAN_ANOMALY":293.6583,"EPHEMERIS_TYPE":0,"CLASSIFICATION_TYPE":"U","NORAD_CAT_ID":65574,"ELEMENT_SET_NO":999,"REV_AT_EPOCH":2755,"BSTAR":0.0003607,"MEAN_MOTION_DOT":4.08e-6,"MEAN_MOTION_DDOT":0},{"OBJECT_NAME":"PRAETORIAN SDA_612","OBJECT_ID":"2025-203L","EPOCH":"2026-03-28T11:58:21.543744","MEAN_MOTION":13.8502776,"ECCENTRICITY":0.00103438,"INCLINATION":81.2987,"RA_OF_ASC_NODE":85.3479,"ARG_OF_PERICENTER":55.9829,"MEAN_ANOMALY":304.2309,"EPHEMERIS_TYPE":0,"CLASSIFICATION_TYPE":"U","NORAD_CAT_ID":65575,"ELEMENT_SET_NO":999,"REV_AT_EPOCH":2754,"BSTAR":0.00025340711,"MEAN_MOTION_DOT":2.99e-6,"MEAN_MOTION_DDOT":0},{"OBJECT_NAME":"PRAETORIAN SDA_613","OBJECT_ID":"2025-203M","EPOCH":"2026-03-28T18:03:28.878912","MEAN_MOTION":13.82944032,"ECCENTRICITY":0.0006854,"INCLINATION":81.2959,"RA_OF_ASC_NODE":85.2784,"ARG_OF_PERICENTER":60.4456,"MEAN_ANOMALY":299.7382,"EPHEMERIS_TYPE":0,"CLASSIFICATION_TYPE":"U","NORAD_CAT_ID":65576,"ELEMENT_SET_NO":999,"REV_AT_EPOCH":2756,"BSTAR":6.3678e-5,"MEAN_MOTION_DOT":8.1e-7,"MEAN_MOTION_DDOT":0},{"OBJECT_NAME":"PRAETORIAN SDA_614","OBJECT_ID":"2025-203N","EPOCH":"2026-03-28T11:20:59.112096","MEAN_MOTION":13.8476792,"ECCENTRICITY":0.00082206,"INCLINATION":81.2974,"RA_OF_ASC_NODE":85.4294,"ARG_OF_PERICENTER":55.817,"MEAN_ANOMALY":304.3765,"EPHEMERIS_TYPE":0,"CLASSIFICATION_TYPE":"U","NORAD_CAT_ID":65577,"ELEMENT_SET_NO":999,"REV_AT_EPOCH":2754,"BSTAR":7.0174176e-5,"MEAN_MOTION_DOT":9.1e-7,"MEAN_MOTION_DDOT":0},{"OBJECT_NAME":"PRAETORIAN SDA_615","OBJECT_ID":"2025-203P","EPOCH":"2026-03-28T17:15:14.580000","MEAN_MOTION":13.84425198,"ECCENTRICITY":0.0010109,"INCLINATION":81.2982,"RA_OF_ASC_NODE":85.1144,"ARG_OF_PERICENTER":54.1919,"MEAN_ANOMALY":306.0176,"EPHEMERIS_TYPE":0,"CLASSIFICATION_TYPE":"U","NORAD_CAT_ID":65578,"ELEMENT_SET_NO":999,"REV_AT_EPOCH":2757,"BSTAR":0.00025319,"MEAN_MOTION_DOT":2.95e-6,"MEAN_MOTION_DDOT":0},{"OBJECT_NAME":"PRAETORIAN SDA_616","OBJECT_ID":"2025-203Q","EPOCH":"2026-03-28T11:30:59.688000","MEAN_MOTION":13.83313351,"ECCENTRICITY":0.00066488,"INCLINATION":81.3025,"RA_OF_ASC_NODE":85.6771,"ARG_OF_PERICENTER":66.4326,"MEAN_ANOMALY":293.7528,"EPHEMERIS_TYPE":0,"CLASSIFICATION_TYPE":"U","NORAD_CAT_ID":65579,"ELEMENT_SET_NO":999,"REV_AT_EPOCH":2752,"BSTAR":0.00022508416,"MEAN_MOTION_DOT":2.59e-6,"MEAN_MOTION_DDOT":0}]
